{"fetched_at":"2026-04-28T02:44:31Z","count":8774,"tles":[{"name":"STARLINK-3686","line1":"1 52279U 22041U   23361.91667824  .00124050  00000+0  23119-2 0  9991","line2":"2 52279  53.2254  70.4669 0004953  79.7889 334.3234 15.47923923  5933","category":"Starlink"},{"name":"TTU100","line1":"1 46312U 20061AS  24224.14643413  .06533270  24366-5  16471-2 0  9998","line2":"2 46312  97.3196 304.4533 0014476 270.4217  89.5418 16.28694678218799","category":"Other"},{"name":"HULIANWANG DIGUI-154","line1":"1 67530U 26013J   26117.42124981 -.00000080  00000+0  94027-4 0  9995","line2":"2 67530  50.0050 177.3587 0000598 283.4136  76.6669 13.29326367 13297","category":"Other"},{"name":"2024-199AK","line1":"1 61768U 24199AK  26117.49105515  .00023012  00000+0  44841-3 0  9991","line2":"2 61768  97.3048 351.7712 0007710 110.2728 249.9352 15.47514135126495","category":"Other"},{"name":"STARLINK-1283","line1":"1 45389U 20019AF  26116.67867213  .00064550  00000+0  60859-3 0  9997","line2":"2 45389  53.0407 235.1673 0002188 357.0507   3.0495 15.66475814338038","category":"Starlink"},{"name":"TIANHUI 6B","line1":"1 55839U 23030D   26117.52911523  .00000305  00000+0  23171-3 0  9997","line2":"2 55839  99.0115 126.3855 0002035 116.9643 243.1730 14.01331524160299","category":"Other"},{"name":"GLOBALSTAR M096","line1":"1 39075U 13005D   26117.39240463 -.00000084  00000+0  10837-3 0  9995","line2":"2 39075  52.0098 354.2155 0000655  95.2509 264.8433 12.62264385610973","category":"Other"},{"name":"STARLINK-4114","line1":"1 53162U 22083AG  26116.86987697  .00002263  00000+0  16020-3 0  9992","line2":"2 53162  53.2166 307.8425 0001373  87.7124 272.4025 15.08842960208638","category":"Starlink"},{"name":"STARLINK-31845","line1":"1 60129U 24118S   26117.39437738 -.00000350  00000+0  31365-6 0  9997","line2":"2 60129  53.1598 158.3286 0001014  80.9342 279.1773 15.30189340103189","category":"Starlink"},{"name":"STARLINK-36905","line1":"1 68176U 26050K   26117.50002315  .00006907  00000+0  16810-3 0  9994","line2":"2 68176  53.1597  40.9067 0001178  92.5577 274.4676 15.42145666  6011","category":"Starlink"},{"name":"KEPLER-9 (ARTEMIS)","line1":"1 47531U 21006DX  23362.15795192  .00050307  00000+0  12141-2 0  9999","line2":"2 47531  97.3670  59.2257 0005354 117.9341 242.2449 15.41027394163268","category":"Other"},{"name":"YARILO 3","line1":"1 57198U 23091AJ  25118.47246129  .11694057  26012-5  16674-2 0  9992","line2":"2 57198  97.5342 190.0162 0014603 269.1824  90.7798 16.34536641102111","category":"Other"},{"name":"UNKNOWN","line1":"1 85404U          23176.23854324 -.00000040  00000+0  00000+0 0  9994","line2":"2 85404  24.0768 260.1191 0954275 256.5483 126.1674  2.43508035    13","category":"Other"},{"name":"FENGYUN 1C DEB","line1":"1 32243U 99025CWR 26104.78062649  .00001968  00000+0  88959-3 0  9999","line2":"2 32243  98.2560 123.6933 0268575 132.5522 229.8662 14.05653333953168","category":"Weather"},{"name":"STARLINK-2644","line1":"1 48442U 21040Q   26116.90113477  .00014899  00000+0  49067-3 0  9996","line2":"2 48442  53.1590 313.9933 0001373  78.2159 281.8996 15.31715514274069","category":"Starlink"},{"name":"STARLINK-30535","line1":"1 58001U 23153L   26117.35765422  .00000362  00000+0  22686-4 0  9997","line2":"2 58001  43.0046 151.8414 0001671 270.5844  89.4817 15.27575769142347","category":"Starlink"},{"name":"LEMUR-2-KUNGFOO","line1":"1 42774U 17036K   23240.85321314  .07867117  23325-5  16538-2 0  9991","line2":"2 42774  97.1096 283.9600 0010361 249.7117 110.3065 16.30826260344649","category":"Other"},{"name":"STARLINK-5226","line1":"1 54056U 22136F   26117.33439032 -.00001613  00000+0 -83305-4 0  9993","line2":"2 54056  53.2165 125.3320 0001337  72.1037 288.0101 15.08826981194196","category":"Starlink"},{"name":"COSMOS 2251 DEB","line1":"1 35668U 93036APK 26104.37629141  .00000708  00000+0  13343-3 0  9996","line2":"2 35668  74.0462 345.0397 0081111  59.2526 301.6597 14.64406215894426","category":"Other"},{"name":"STARLINK-3535","line1":"1 51722U 22016J   26117.26774201 -.00000107  00000+0  11359-4 0  9995","line2":"2 51722  53.2158 111.0436 0001316  95.7925 264.3217 15.08845510230756","category":"Starlink"},{"name":"STARLINK-31281","line1":"1 59077U 24041D   26117.45806911 -.00000198  00000+0  23158-5 0  9992","line2":"2 59077  43.0040  34.9759 0001136 270.9264  89.1458 15.27573428121787","category":"Starlink"},{"name":"STARLINK-35719","line1":"1 67183U 25303W   26117.04523858  .00023015  00000+0  84295-3 0  9991","line2":"2 67183  43.0019  37.3523 0000713 260.6033  99.4738 15.27592648 20133","category":"Starlink"},{"name":"YAOGAN-30 07A","line1":"1 45460U 20021A   26117.53452635  .00002940  00000+0  21925-3 0  9990","line2":"2 45460  34.9941 159.5545 0004262 292.3412  67.6845 15.02459592332930","category":"Other"},{"name":"TIANMU-1 03","line1":"1 55973U 23039A   26117.51727275  .00017674  00000+0  36608-3 0  9999","line2":"2 55973  97.5216 289.5658 0001647 275.8605  84.2456 15.45823215173001","category":"Other"},{"name":"STARLINK-2007","line1":"1 47602U 21009BG  23362.45244732  .00000399  00000+0  45701-4 0  9999","line2":"2 47602  53.0552  12.9968 0001726  96.4413 263.6772 15.06393980160610","category":"Starlink"},{"name":"STARLINK-5504","line1":"1 57262U 23094AW  26117.34082015  .00001045  00000+0  48680-4 0  9999","line2":"2 57262  43.0045 104.8553 0001300 282.6735  77.3971 15.26711088154680","category":"Starlink"},{"name":"GONETS-M 6","line1":"1 39250U 13048B   26117.53739076  .00000119  00000+0  78961-3 0  9996","line2":"2 39250  82.4899  15.8502 0019551 359.7285   0.3781 12.43029446572651","category":"Other"},{"name":"STARLINK-4364","line1":"1 53230U 22084AT  26117.24635426  .00000625  00000+0  47485-4 0  9992","line2":"2 53230  97.5651 179.0940 0001098 113.8741 246.2601 15.05651189206696","category":"Starlink"},{"name":"CZ-6A R/B","line1":"1 60214U 24126D   24215.91792537  .00006079  00000+0  40237-3 0  9995","line2":"2 60214  97.8175 222.7645 0078867 290.5182  68.7592 15.05172640  4308","category":"Other"},{"name":"STARLINK-37092","line1":"1 68240U 26054J   26117.50002315  .00006105  00000+0  14964-3 0  9998","line2":"2 68240  53.1590  70.2133 0000883 134.4901 257.5428 15.42158728  6015","category":"Starlink"},{"name":"STARLINK-33950","line1":"1 63701U 25087E   26117.06207080  .00029288  00000+0  99687-3 0  9999","line2":"2 63701  53.1614 355.0174 0001057  52.1352 307.9744 15.30207022 56608","category":"Starlink"},{"name":"UNKNOWN","line1":"1 87737U          26096.89389957  .00000034  00000+0  80620-4 0  9999","line2":"2 87737  99.3602 331.1168 0132253 249.3658 109.3265 13.72361912619657","category":"Other"},{"name":"STARLINK-2224","line1":"1 48573U 21041W   26117.12069567 -.00005066  00000+0 -15915-3 0  9990","line2":"2 48573  53.1594 261.9742 0000450  93.0090 267.0963 15.30180685272682","category":"Starlink"},{"name":"STARLINK-30567","line1":"1 58067U 23158S   26117.44992274  .00001713  00000+0  71739-4 0  9995","line2":"2 58067  43.0025 111.9632 0001129 255.5156 104.5571 15.27585613141021","category":"Starlink"},{"name":"BSAT-4A","line1":"1 42951U 17059B   26117.49135050 -.00000359  00000+0  00000+0 0  9993","line2":"2 42951   0.0752  57.2471 0004540 347.2404  97.7068  1.00273335 31296","category":"Other"},{"name":"ONEWEB-0509","line1":"1 54127U 22138Q   26117.44632476  .00000035  00000+0  55487-4 0  9998","line2":"2 54127  87.9163 315.0799 0001889  85.2912 274.8436 13.19724197170110","category":"Other"},{"name":"STARLINK-11280 [DTC]","line1":"1 61245U 24175C   26117.42971233  .00000807  00000+0  11523-4 0  9995","line2":"2 61245  53.1601 175.8569 0001279  85.4040 274.7124 15.69703005 91022","category":"Starlink"},{"name":"COSMOS 2251 DEB","line1":"1 35834U 93036ATG 26104.91097877  .00000473  00000+0  25175-3 0  9991","line2":"2 35834  73.9302  85.3339 0111250 219.7734 167.8768 14.13085792680033","category":"Other"},{"name":"STARLINK-3573","line1":"1 51794U 22017AC  26117.50002315  .00110180  00000+0  45501-2 0  9998","line2":"2 51794  53.2171 129.4777 0001741  91.8082 113.1644 15.23154973  5831","category":"Starlink"},{"name":"2025-313A","line1":"1 67248U 25313A   26117.45384899  .00002147  00000+0  21733-3 0  9990","line2":"2 67248  97.5454 185.7632 0279026 139.5971 222.6331 14.67134166 17585","category":"Other"},{"name":"ULTP","line1":"1 45605U 20011D   23362.04203900  .00084378  00000+0  76158-3 0  9997","line2":"2 45605  51.6317 224.8242 0004712 124.0424 236.1020 15.67401399203363","category":"Other"},{"name":"ONEWEB-0546","line1":"1 56048U 23043C   26117.40963334  .00000105  00000+0  24172-3 0  9998","line2":"2 56048  87.9083 238.8573 0001581 122.3409 237.7875 13.16594684152286","category":"Other"},{"name":"STARLINK-2078","line1":"1 47675U 21012BH  23362.40822491  .00004560  00000+0  32504-3 0  9992","line2":"2 47675  53.0548  53.2037 0001738  89.9834 270.1354 15.06377629158828","category":"Starlink"},{"name":"STARLINK-6380","line1":"1 57344U 23099S   26117.29826796  .00080864  00000+0  30091-2 0  9992","line2":"2 57344  42.9997 337.6106 0002818  74.6947 285.4216 15.26542703153515","category":"Starlink"},{"name":"NUSAT-45 (UZMASAT-1)","line1":"1 62640U 25009AH  26117.50342353  .00010687  00000+0  37445-3 0  9993","line2":"2 62640  97.3600 199.1807 0003329 128.6478 231.5060 15.29647134 71178","category":"Other"},{"name":"SMDC ONE 2.4","line1":"1 39469U 13072H   26117.34487508  .00012909  00000+0  51774-3 0  9997","line2":"2 39469 120.4886 155.9555 0137825 323.4472  35.7260 15.17209613110110","category":"Other"},{"name":"YAOGAN-35 03C","line1":"1 53320U 22088E   26117.46821297  .00040980  00000+0  93637-3 0  9990","line2":"2 53320  34.9954 121.1264 0003709 233.9588 126.0789 15.41801173209097","category":"Other"},{"name":"STARLINK-11128 [DTC]","line1":"1 60302U 24133B   26116.77101420  .00008340  00000+0  73588-4 0  9991","line2":"2 60302  53.1580 269.3586 0001296  66.6456 293.4699 15.69723869101285","category":"Starlink"}]}